ONEWEB-0220             
1 48232U 21031Y   25253.21143391 -.00000204  00000+0 -58458-3 0  9997
2 48232  87.9091 345.4246 0002033 105.9169 254.2185 13.14502861211622
ONEWEB-0165             
1 48233U 21031Z   25253.01161704  .00000313  00000+0  80900-3 0  9990
2 48233  87.9074 345.5056 0001855 106.1103 254.0231 13.14502410211558
ONEWEB-0199             
1 48234U 21031AA  25252.99576630 -.00000049  00000+0 -16561-3 0  9995
2 48234  87.9086 345.4741 0001793  96.1604 263.9730 13.14503806211459
ONEWEB-0203             
1 48235U 21031AB  25253.21459181 -.00000169  00000+0 -49089-3 0  9997
2 48235  87.9084 345.4323 0001573 100.7892 259.3415 13.14504952211497
ONEWEB-0197             
1 48236U 21031AC  25253.26523145  .00000066  00000+0  14350-3 0  9992
2 48236  87.9085 345.4206 0002154  97.6006 262.5368 13.14500686211411
ONEWEB-0194             
1 48237U 21031AD  25253.24473624  .00000230  00000+0  58656-3 0  9997
2 48237  87.9089 345.4388 0001670  92.8902 267.2419 13.14503256211584
ONEWEB-0193             
1 48238U 21031AE  25253.26060252  .00000172  00000+0  42932-3 0  9994
2 48238  87.9076 345.4375 0001649  86.1976 273.9342 13.14503080211539
ONEWEB-0191             
1 48239U 21031AF  25253.27169126 -.00000022  00000+0 -93851-4 0  9999
2 48239  87.9097 345.4117 0001820  98.0897 262.0440 13.14504517211390
ONEWEB-0195             
1 48240U 21031AG  25253.24868342  .00000274  00000+0  70570-3 0  9993
2 48240  87.9093 345.4138 0001737 113.1354 246.9959 13.14505713211378
ONEWEB-0201             
1 48241U 21031AH  25253.23693239  .00000141  00000+0  34455-3 0  9999
2 48241  87.9094 345.4654 0002095 106.4670 253.6690 13.14504622211608
ONEWEB-0207             
1 48242U 21031AJ  25253.21697474 -.00000124  00000+0 -36954-3 0  9992
2 48242  87.9086 345.4274 0002052 102.4060 257.7299 13.14502850211511
ONEWEB-0208             
1 48243U 21031AK  25252.97038800 -.00000098  00000+0 -29771-3 0  9996
2 48243  87.9088 345.4905 0001725 105.4162 254.7158 13.14504247211497
ONEWEB-0200             
1 48244U 21031AL  25253.23839645  .00000226  00000+0  57503-3 0  9998
2 48244  87.9086 345.4285 0001800 103.1168 257.0163 13.14503653211450
ONEWEB-0217             
1 48245U 21031AM  25253.02588584  .00000231  00000+0  58760-3 0  9991
2 48245  87.9095 345.4567 0001654 109.4719 250.6589 13.14502313211376
ONEWEB-0211             
1 48767U 21045A   25253.42753038 -.00000040  00000+0 -13879-3 0  9999
2 48767  87.9048 314.9529 0001566  97.5484 262.5825 13.16085041207646
ONEWEB-0223             
1 48768U 21045B   25253.45441249  .00000117  00000+0  27784-3 0  9994
2 48768  87.9039 315.0010 0001371  95.2025 264.9262 13.15548349207627
