[{"OBJECT_NAME":"ONEWEB-0220","OBJECT_ID":"2021-031Y","EPOCH":"2025-09-10T05:04:27.889824","MEAN_MOTION":13.14502861,"ECCENTRICITY":0.00020337,"INCLINATION":87.9091,"RA_OF_ASC_NODE":345.4246,"ARG_OF_PERICENTER":105.9169,"MEAN_ANOMALY":254.2185,"EPHEMERIS_TYPE":0,"CLASSIFICATION_TYPE":"U","NORAD_CAT_ID":48232,"ELEMENT_SET_NO":999,"REV_AT_EPOCH":21162,"BSTAR":-0.00058458351,"MEAN_MOTION_DOT":-2.04e-6,"MEAN_MOTION_DDOT":0},{"OBJECT_NAME":"ONEWEB-0165","OBJECT_ID":"2021-031Z","EPOCH":"2025-09-10T00:16:43.712256","MEAN_MOTION":13.1450241,"ECCENTRICITY":0.0001855,"INCLINATION":87.9074,"RA_OF_ASC_NODE":345.5056,"ARG_OF_PERICENTER":106.1103,"MEAN_ANOMALY":254.0231,"EPHEMERIS_TYPE":0,"CLASSIFICATION_TYPE":"U","NORAD_CAT_ID":48233,"ELEMENT_SET_NO":999,"REV_AT_EPOCH":21155,"BSTAR":0.00080900044,"MEAN_MOTION_DOT":3.13e-6,"MEAN_MOTION_DDOT":0},{"OBJECT_NAME":"ONEWEB-0199","OBJECT_ID":"2021-031AA","EPOCH":"2025-09-09T23:53:54.208320","MEAN_MOTION":13.14503806,"ECCENTRICITY":0.00017932,"INCLINATION":87.9086,"RA_OF_ASC_NODE":345.4741,"ARG_OF_PERICENTER":96.1604,"MEAN_ANOMALY":263.973,"EPHEMERIS_TYPE":0,"CLASSIFICATION_TYPE":"U","NORAD_CAT_ID":48234,"ELEMENT_SET_NO":999,"REV_AT_EPOCH":21145,"BSTAR":-0.00016561168,"MEAN_MOTION_DOT":-4.9e-7,"MEAN_MOTION_DDOT":0},{"OBJECT_NAME":"ONEWEB-0203","OBJECT_ID":"2021-031AB","EPOCH":"2025-09-10T05:09:00.732384","MEAN_MOTION":13.14504952,"ECCENTRICITY":0.00015731,"INCLINATION":87.9084,"RA_OF_ASC_NODE":345.4323,"ARG_OF_PERICENTER":100.7892,"MEAN_ANOMALY":259.3415,"EPHEMERIS_TYPE":0,"CLASSIFICATION_TYPE":"U","NORAD_CAT_ID":48235,"ELEMENT_SET_NO":999,"REV_AT_EPOCH":21149,"BSTAR":-0.00049089476,"MEAN_MOTION_DOT":-1.69e-6,"MEAN_MOTION_DDOT":0},{"OBJECT_NAME":"ONEWEB-0197","OBJECT_ID":"2021-031AC","EPOCH":"2025-09-10T06:21:55.997280","MEAN_MOTION":13.14500686,"ECCENTRICITY":0.00021546,"INCLINATION":87.9085,"RA_OF_ASC_NODE":345.4206,"ARG_OF_PERICENTER":97.6006,"MEAN_ANOMALY":262.5368,"EPHEMERIS_TYPE":0,"CLASSIFICATION_TYPE":"U","NORAD_CAT_ID":48236,"ELEMENT_SET_NO":999,"REV_AT_EPOCH":21141,"BSTAR":0.0001435024,"MEAN_MOTION_DOT":6.6e-7,"MEAN_MOTION_DDOT":0},{"OBJECT_NAME":"ONEWEB-0194","OBJECT_ID":"2021-031AD","EPOCH":"2025-09-10T05:52:25.211136","MEAN_MOTION":13.14503256,"ECCENTRICITY":0.00016708,"INCLINATION":87.9089,"RA_OF_ASC_NODE":345.4388,"ARG_OF_PERICENTER":92.8902,"MEAN_ANOMALY":267.2419,"EPHEMERIS_TYPE":0,"CLASSIFICATION_TYPE":"U","NORAD_CAT_ID":48237,"ELEMENT_SET_NO":999,"REV_AT_EPOCH":21158,"BSTAR":0.00058656461,"MEAN_MOTION_DOT":2.3e-6,"MEAN_MOTION_DDOT":0},{"OBJECT_NAME":"ONEWEB-0193","OBJECT_ID":"2021-031AE","EPOCH":"2025-09-10T06:15:16.057728","MEAN_MOTION":13.1450308,"ECCENTRICITY":0.00016498,"INCLINATION":87.9076,"RA_OF_ASC_NODE":345.4375,"ARG_OF_PERICENTER":86.1976,"MEAN_ANOMALY":273.9342,"EPHEMERIS_TYPE":0,"CLASSIFICATION_TYPE":"U","NORAD_CAT_ID":48238,"ELEMENT_SET_NO":999,"REV_AT_EPOCH":21153,"BSTAR":0.00042931702,"MEAN_MOTION_DOT":1.72e-6,"MEAN_MOTION_DDOT":0},{"OBJECT_NAME":"ONEWEB-0191","OBJECT_ID":"2021-031AF","EPOCH":"2025-09-10T06:31:14.124864","MEAN_MOTION":13.14504517,"ECCENTRICITY":0.00018207,"INCLINATION":87.9097,"RA_OF_ASC_NODE":345.4117,"ARG_OF_PERICENTER":98.0897,"MEAN_ANOMALY":262.044,"EPHEMERIS_TYPE":0,"CLASSIFICATION_TYPE":"U","NORAD_CAT_ID":48239,"ELEMENT_SET_NO":999,"REV_AT_EPOCH":21139,"BSTAR":-9.3851331e-5,"MEAN_MOTION_DOT":-2.2e-7,"MEAN_MOTION_DDOT":0},{"OBJECT_NAME":"ONEWEB-0195","OBJECT_ID":"2021-031AG","EPOCH":"2025-09-10T05:58:06.247488","MEAN_MOTION":13.14505713,"ECCENTRICITY":0.00017376,"INCLINATION":87.9093,"RA_OF_ASC_NODE":345.4138,"ARG_OF_PERICENTER":113.1354,"MEAN_ANOMALY":246.9959,"EPHEMERIS_TYPE":0,"CLASSIFICATION_TYPE":"U","NORAD_CAT_ID":48240,"ELEMENT_SET_NO":999,"REV_AT_EPOCH":21137,"BSTAR":0.00070570024,"MEAN_MOTION_DOT":2.74e-6,"MEAN_MOTION_DDOT":0},{"OBJECT_NAME":"ONEWEB-0201","OBJECT_ID":"2021-031AH","EPOCH":"2025-09-10T05:41:10.958496","MEAN_MOTION":13.14504622,"ECCENTRICITY":0.00020954,"INCLINATION":87.9094,"RA_OF_ASC_NODE":345.4654,"ARG_OF_PERICENTER":106.467,"MEAN_ANOMALY":253.669,"EPHEMERIS_TYPE":0,"CLASSIFICATION_TYPE":"U","NORAD_CAT_ID":48241,"ELEMENT_SET_NO":999,"REV_AT_EPOCH":21160,"BSTAR":0.00034455175,"MEAN_MOTION_DOT":1.41e-6,"MEAN_MOTION_DDOT":0},{"OBJECT_NAME":"ONEWEB-0207","OBJECT_ID":"2021-031AJ","EPOCH":"2025-09-10T05:12:26.617536","MEAN_MOTION":13.1450285,"ECCENTRICITY":0.00020529,"INCLINATION":87.9086,"RA_OF_ASC_NODE":345.4274,"ARG_OF_PERICENTER":102.406,"MEAN_ANOMALY":257.7299,"EPHEMERIS_TYPE":0,"CLASSIFICATION_TYPE":"U","NORAD_CAT_ID":48242,"ELEMENT_SET_NO":999,"REV_AT_EPOCH":21151,"BSTAR":-0.00036954251,"MEAN_MOTION_DOT":-1.24e-6,"MEAN_MOTION_DDOT":0},{"OBJECT_NAME":"ONEWEB-0208","OBJECT_ID":"2021-031AK","EPOCH":"2025-09-09T23:17:21.523200","MEAN_MOTION":13.14504247,"ECCENTRICITY":0.00017254,"INCLINATION":87.9088,"RA_OF_ASC_NODE":345.4905,"ARG_OF_PERICENTER":105.4162,"MEAN_ANOMALY":254.7158,"EPHEMERIS_TYPE":0,"CLASSIFICATION_TYPE":"U","NORAD_CAT_ID":48243,"ELEMENT_SET_NO":999,"REV_AT_EPOCH":21149,"BSTAR":-0.00029770718,"MEAN_MOTION_DOT":-9.8e-7,"MEAN_MOTION_DDOT":0},{"OBJECT_NAME":"ONEWEB-0200","OBJECT_ID":"2021-031AL","EPOCH":"2025-09-10T05:43:17.453280","MEAN_MOTION":13.14503653,"ECCENTRICITY":0.00018001,"INCLINATION":87.9086,"RA_OF_ASC_NODE":345.4285,"ARG_OF_PERICENTER":103.1168,"MEAN_ANOMALY":257.0163,"EPHEMERIS_TYPE":0,"CLASSIFICATION_TYPE":"U","NORAD_CAT_ID":48244,"ELEMENT_SET_NO":999,"REV_AT_EPOCH":21145,"BSTAR":0.00057503268,"MEAN_MOTION_DOT":2.26e-6,"MEAN_MOTION_DDOT":0},{"OBJECT_NAME":"ONEWEB-0217","OBJECT_ID":"2021-031AM","EPOCH":"2025-09-10T00:37:16.536576","MEAN_MOTION":13.14502313,"ECCENTRICITY":0.00016546,"INCLINATION":87.9095,"RA_OF_ASC_NODE":345.4567,"ARG_OF_PERICENTER":109.4719,"MEAN_ANOMALY":250.6589,"EPHEMERIS_TYPE":0,"CLASSIFICATION_TYPE":"U","NORAD_CAT_ID":48245,"ELEMENT_SET_NO":999,"REV_AT_EPOCH":21137,"BSTAR":0.00058759705,"MEAN_MOTION_DOT":2.31e-6,"MEAN_MOTION_DDOT":0},{"OBJECT_NAME":"ONEWEB-0211","OBJECT_ID":"2021-045A","EPOCH":"2025-09-10T10:15:38.624832","MEAN_MOTION":13.16085041,"ECCENTRICITY":0.00015663,"INCLINATION":87.9048,"RA_OF_ASC_NODE":314.9529,"ARG_OF_PERICENTER":97.5484,"MEAN_ANOMALY":262.5825,"EPHEMERIS_TYPE":0,"CLASSIFICATION_TYPE":"U","NORAD_CAT_ID":48767,"ELEMENT_SET_NO":999,"REV_AT_EPOCH":20764,"BSTAR":-0.00013879003,"MEAN_MOTION_DOT":-4.0e-7,"MEAN_MOTION_DDOT":0},{"OBJECT_NAME":"ONEWEB-0223","OBJECT_ID":"2021-045B","EPOCH":"2025-09-10T10:54:21.239136","MEAN_MOTION":13.15548349,"ECCENTRICITY":0.00013718,"INCLINATION":87.9039,"RA_OF_ASC_NODE":315.001,"ARG_OF_PERICENTER":95.2025,"MEAN_ANOMALY":264.9262,"EPHEMERIS_TYPE":0,"CLASSIFICATION_TYPE":"U","NORAD_CAT_ID":48768,"ELEMENT_SET_NO":999,"REV_AT_EPOCH":20762,"BSTAR":0.00027783794,"MEAN_MOTION_DOT":1.17e-6,"MEAN_MOTION_DDOT":0}]
